[{"OBJECT_NAME":"YAOGAN-36 02B","OBJECT_ID":"2022-133B","EPOCH":"2026-03-09T22:42:31.775904","MEAN_MOTION":15.30199518,"ECCENTRICITY":0.00056841,"INCLINATION":34.9983,"RA_OF_ASC_NODE":22.5268,"ARG_OF_PERICENTER":273.0351,"MEAN_ANOMALY":86.9715,"EPHEMERIS_TYPE":0,"CLASSIFICATION_TYPE":"U","NORAD_CAT_ID":54043,"ELEMENT_SET_NO":999,"REV_AT_EPOCH":18962,"BSTAR":0.00051218814,"MEAN_MOTION_DOT":0.00015352,"MEAN_MOTION_DDOT":0},{"OBJECT_NAME":"STARLINK-35111","OBJECT_ID":"2025-195F","EPOCH":"2026-03-09T22:12:57.193344","MEAN_MOTION":15.30223245,"ECCENTRICITY":7.331e-5,"INCLINATION":53.1584,"RA_OF_ASC_NODE":256.8121,"ARG_OF_PERICENTER":85.083,"MEAN_ANOMALY":275.0254,"EPHEMERIS_TYPE":0,"CLASSIFICATION_TYPE":"U","NORAD_CAT_ID":65463,"ELEMENT_SET_NO":999,"REV_AT_EPOCH":3003,"BSTAR":0.0009742998,"MEAN_MOTION_DOT":0.00028629,"MEAN_MOTION_DDOT":0}]
